43072,IRIDIUM 116,2017,100.4,860.0,+,86.39,Active,1,LEO,USA,USA,Commercial/Government,Communications,Falcon,1 43072U 17083C   24097.08634092  .00000115  00000+0  34176-4 0  9990,2 43072  86.3918 297.2322 0002011  85.4316 274.7109 14.34214211329200,14.34214211,0.0002011,LEO
43073,IRIDIUM 130,2017,100.4,860.0,+,86.39,Active,1,LEO,USA,USA,Commercial/Government,Communications,Falcon,1 43073U 17083D   24096.91509139  .00000119  00000+0  35318-4 0  9998,2 43073  86.3927 297.5016 0002263  88.8117 271.3338 14.34215092329125,14.34215092,0.0002263,LEO
43074,IRIDIUM 151,2017,100.4,860.0,+,86.39,Active,1,LEO,USA,USA,Commercial/Government,Communications,Falcon,1 43074U 17083E   24096.61064555  .00000114  00000+0  33802-4 0  9995,2 43074  86.3920 297.4709 0001798  98.0472 262.0928 14.34215420329101,14.3421542,0.0001798,LEO
43075,IRIDIUM 134,2017,100.4,860.0,+,86.39,Active,1,LEO,USA,USA,Commercial/Government,Communications,Falcon,1 43075U 17083F   24096.78823603  .00000117  00000+0  34774-4 0  9993,2 43075  86.3921 297.3938 0002273  86.4740 273.6715 14.34215230329093,14.3421523,0.0002273,LEO
43076,IRIDIUM 137,2017,100.4,860.0,+,86.39,Active,1,LEO,USA,USA,Commercial/Government,Communications,Falcon,1 43076U 17083G   24096.66138363  .00000116  00000+0  34239-4 0  9998,2 43076  86.3923 297.5236 0001644  85.0971 275.0412 14.34214993329142,14.34214993,0.0001644,LEO
43077,IRIDIUM 141,2017,100.4,860.0,+,86.39,Active,1,LEO,USA,USA,Commercial/Government,Communications,Falcon,1 43077U 17083H   24096.79457590  .00000111  00000+0  32426-4 0  9990,2 43077  86.3921 297.3445 0002030  89.3059 270.8370 14.34218596329166,14.34218596,0.000203,LEO
43078,IRIDIUM 153,2017,100.4,860.0,+,86.39,Active,1,LEO,USA,USA,Commercial/Government,Communications,Falcon,1 43078U 17083J   24097.16536147  .00000106  00000+0  30952-4 0  9995,2 43078  86.3919 265.6165 0002276 104.8041 255.3407 14.34216536330328,14.34216536,0.0002276,LEO
43079,IRIDIUM 131,2017,100.4,860.0,+,86.39,Active,1,LEO,USA,USA,Commercial/Government,Communications,Falcon,1 43079U 17083K   24096.85166391  .00000117  00000+0  34607-4 0  9994,2 43079  86.3924 297.4526 0001937  89.4776 270.6642 14.34214966329105,14.34214966,0.0001937,LEO
